0 INTELSAT 19
1 38356U 12030A   13280.77188391 -.00000065  00000-0  10000-3 0  3405
2 38356 000.0393 342.1434 0002909 232.1857 246.1462 01.00272221  5064
0 INTELSAT 19
1 38356U 12030A   13282.74433435 -.00000071  00000-0  10000-3 0  3414
2 38356 000.0382 341.9571 0002930 232.6348 237.9098 01.00272265  5088
0 INTELSAT 19
1 38356U 12030A   13283.63464620  .00000000  00000-0  10000-3 0  3436
2 38356 000.0315 040.6174 0003796 187.7764 185.5093 01.00269852  5091
0 INTELSAT 19
1 38356U 12030A   13285.41165608 -.00000079  00000-0  10000-3 0  3424
2 38356 000.0343 007.2093 0002930 207.4330 120.7230 01.00272248  5108
0 INTELSAT 19
1 38356U 12030A   13287.49874723 -.00000081  00000-0  10000-3 0  3433
2 38356 000.0368 018.7188 0002961 196.3502 153.7075 01.00272327  5132
0 INTELSAT 19
1 38356U 12030A   13288.59256190 -.00000081  00000-0  10000-3 0  3448
2 38356 000.0372 016.7420 0003011 199.5122 187.3726 01.00272293  5143
0 INTELSAT 19
1 38356U 12030A   13289.60140699 -.00000080  00000-0  10000-3 0  3457
2 38356 000.0384 016.0750 0003042 200.2061 191.5258 01.00272363  5157
0 INTELSAT 19
1 38356U 12030A   13290.27584559 -.00000078  00000-0  10000-3 0  3467
2 38356 000.0441 013.3896 0002871 197.3814 080.5084 01.00272816  5150
0 INTELSAT 19
1 38356U 12030A   13290.45270817  .00000000  00000-0  10000-3 0  3482
2 38356 000.0288 032.6451 0003168 168.8573 153.6391 01.00269658  5158
0 INTELSAT 19
1 38356U 12030A   13290.46828301  .00000000  00000-0  10000-3 0  3503
2 38356 000.0288 033.7701 0003175 168.7353 158.2574 01.00269664  5152
0 INTELSAT 19
1 38356U 12030A   13290.61324104 -.00000078  00000-0  10000-3 0  3474
2 38356 000.0506 021.6056 0002893 188.4172 203.0511 01.00272792  5165
0 INTELSAT 19
1 38356U 12030A   13291.62217446 -.00000076  00000-0  10000-3 0  3485
2 38356 000.0514 026.0123 0002939 185.5453 205.7274 01.00272788  5170
0 INTELSAT 19
1 38356U 12030A   13293.48009587 -.00000072  00000-0  10000-3 0  3493
2 38356 000.0535 027.4400 0002887 182.3274 158.2052 01.00272864  5197
0 INTELSAT 19
1 38356U 12030A   13293.59391881 -.00000072  00000-0  10000-3 0  3508
2 38356 000.0538 028.5746 0003071 185.8079 194.6740 01.00272748  5191
